{
  "type": "FeatureCollection",
  "features": [
    {
      "type": "Feature",
      "properties": {
        "norad_id": 36828,
        "name": "BEIDOU-2 IGSO-1 (C06)",
        "group": "beidou",
        "lat": -48.31302875802342,
        "lon": 38.608859739185704,
        "alt_km": 35605.635550163366,
        "timestamp": "2025-12-14T14:39:29.635435+00:00",
        "meta_object_name": "BEIDOU-2 IGSO-1 (C06)",
        "meta_object_id": "2010-036A",
        "meta_epoch": "2025-12-13T21:54:21.538656",
        "meta_mean_motion": 1.00275899,
        "meta_eccentricity": 0.00512465,
        "meta_inclination": 54.2867,
        "meta_ra_of_asc_node": 164.6367,
        "meta_arg_of_pericenter": 215.8478,
        "meta_mean_anomaly": 138.8413,
        "meta_ephemeris_type": 0,
        "meta_classification_type": "U",
        "meta_norad_cat_id": 36828,
        "meta_element_set_no": 999,
        "meta_rev_at_epoch": 5623,
        "meta_bstar": 0,
        "meta_mean_motion_dot": -2.9e-07,
        "meta_mean_motion_ddot": 0,
        "tle_line1": "1 36828U 10036A   25347.91274929 -.00000029  00000+0  00000+0 0  9991",
        "tle_line2": "2 36828  54.2867 164.6367 0051246 215.8478 138.8413  1.00275899 56232"
      },
      "geometry": {
        "type": "Point",
        "coordinates": [
          38.608859739185704,
          -48.31302875802342
        ]
      }
    },
    {
      "type": "Feature",
      "properties": {
        "norad_id": 37210,
        "name": "BEIDOU-2 G4 (C04)",
        "group": "beidou",
        "lat": 1.7768022344632461,
        "lon": 103.38103306135216,
        "alt_km": 35828.15619073283,
        "timestamp": "2025-12-14T14:39:29.635479+00:00",
        "meta_object_name": "BEIDOU-2 G4 (C04)",
        "meta_object_id": "2010-057A",
        "meta_epoch": "2025-12-13T22:46:14.503008",
        "meta_mean_motion": 1.0027174,
        "meta_eccentricity": 0.00107716,
        "meta_inclination": 3.1879,
        "meta_ra_of_asc_node": 69.9356,
        "meta_arg_of_pericenter": 191.4904,
        "meta_mean_anomaly": 323.0838,
        "meta_ephemeris_type": 0,
        "meta_classification_type": "U",
        "meta_norad_cat_id": 37210,
        "meta_element_set_no": 999,
        "meta_rev_at_epoch": 5543,
        "meta_bstar": 0,
        "meta_mean_motion_dot": -9.6e-07,
        "meta_mean_motion_ddot": 0,
        "tle_line1": "1 37210U 10057A   25347.94877897 -.00000096  00000+0  00000+0 0  9990",
        "tle_line2": "2 37210   3.1879  69.9356 0010771 191.4904 323.0838  1.00271740 55431"
      },
      "geometry": {
        "type": "Point",
        "coordinates": [
          103.38103306135216,
          1.7768022344632461
        ]
      }
    },
    {
      "type": "Feature",
      "properties": {
        "norad_id": 37256,
        "name": "BEIDOU-2 IGSO-2 (C07)",
        "group": "beidou",
        "lat": 30.772087354046736,
        "lon": 61.577734781875584,
        "alt_km": 35740.7074037869,
        "timestamp": "2025-12-14T14:39:29.635497+00:00",
        "meta_object_name": "BEIDOU-2 IGSO-2 (C07)",
        "meta_object_id": "2010-068A",
        "meta_epoch": "2025-12-03T17:22:36.027840",
        "meta_mean_motion": 1.0028872,
        "meta_eccentricity": 0.00492449,
        "meta_inclination": 47.9042,
        "meta_ra_of_asc_node": 274.2614,
        "meta_arg_of_pericenter": 216.1411,
        "meta_mean_anomaly": 310.24,
        "meta_ephemeris_type": 0,
        "meta_classification_type": "U",
        "meta_norad_cat_id": 37256,
        "meta_element_set_no": 999,
        "meta_rev_at_epoch": 5483,
        "meta_bstar": 0,
        "meta_mean_motion_dot": -2.25e-06,
        "meta_mean_motion_ddot": 0,
        "tle_line1": "1 37256U 10068A   25337.72402810 -.00000225  00000+0  00000+0 0  9990",
        "tle_line2": "2 37256  47.9042 274.2614 0049244 216.1411 310.2400  1.00288720 54834"
      },
      "geometry": {
        "type": "Point",
        "coordinates": [
          61.577734781875584,
          30.772087354046736
        ]
      }
    },
    {
      "type": "Feature",
      "properties": {
        "norad_id": 37384,
        "name": "BEIDOU-2 IGSO-3 (C08)",
        "group": "beidou",
        "lat": 7.894856878861557,
        "lon": 46.12803086158898,
        "alt_km": 35935.69568448203,
        "timestamp": "2025-12-14T14:39:29.635512+00:00",
        "meta_object_name": "BEIDOU-2 IGSO-3 (C08)",
        "meta_object_id": "2011-013A",
        "meta_epoch": "2025-12-13T13:58:02.786016",
        "meta_mean_motion": 1.00270696,
        "meta_eccentricity": 0.00354199,
        "meta_inclination": 62.1449,
        "meta_ra_of_asc_node": 41.9072,
        "meta_arg_of_pericenter": 187.5637,
        "meta_mean_anomaly": 170.0888,
        "meta_ephemeris_type": 0,
        "meta_classification_type": "U",
        "meta_norad_cat_id": 37384,
        "meta_element_set_no": 999,
        "meta_rev_at_epoch": 5379,
        "meta_bstar": 0,
        "meta_mean_motion_dot": -1.97e-06,
        "meta_mean_motion_ddot": 0,
        "tle_line1": "1 37384U 11013A   25347.58197669 -.00000197  00000+0  00000+0 0  9999",
        "tle_line2": "2 37384  62.1449  41.9072 0035419 187.5637 170.0888  1.00270696 53792"
      },
      "geometry": {
        "type": "Point",
        "coordinates": [
          46.12803086158898,
          7.894856878861557
        ]
      }
    },
    {
      "type": "Feature",
      "properties": {
        "norad_id": 37763,
        "name": "BEIDOU-2 IGSO-4 (C09)",
        "group": "beidou",
        "lat": -38.97726335338778,
        "lon": 22.529729929719725,
        "alt_km": 35158.678984924816,
        "timestamp": "2025-12-14T14:39:29.635525+00:00",
        "meta_object_name": "BEIDOU-2 IGSO-4 (C09)",
        "meta_object_id": "2011-038A",
        "meta_epoch": "2025-12-10T12:04:03.489024",
        "meta_mean_motion": 1.00284678,
        "meta_eccentricity": 0.01490344,
        "meta_inclination": 54.5829,
        "meta_ra_of_asc_node": 167.3658,
        "meta_arg_of_pericenter": 230.2355,
        "meta_mean_anomaly": 317.2212,
        "meta_ephemeris_type": 0,
        "meta_classification_type": "U",
        "meta_norad_cat_id": 37763,
        "meta_element_set_no": 999,
        "meta_rev_at_epoch": 5275,
        "meta_bstar": 0,
        "meta_mean_motion_dot": 3.6e-07,
        "meta_mean_motion_ddot": 0,
        "tle_line1": "1 37763U 11038A   25344.50281816  .00000036  00000+0  00000+0 0  9995",
        "tle_line2": "2 37763  54.5829 167.3658 0149034 230.2355 317.2212  1.00284678 52751"
      },
      "geometry": {
        "type": "Point",
        "coordinates": [
          22.529729929719725,
          -38.97726335338778
        ]
      }
    },
    {
      "type": "Feature",
      "properties": {
        "norad_id": 37948,
        "name": "BEIDOU-2 IGSO-5 (C10)",
        "group": "beidou",
        "lat": 39.39067445531315,
        "lon": 46.250977092921474,
        "alt_km": 35858.27273667622,
        "timestamp": "2025-12-14T14:39:29.635539+00:00",
        "meta_object_name": "BEIDOU-2 IGSO-5 (C10)",
        "meta_object_id": "2011-073A",
        "meta_epoch": "2025-12-12T18:24:47.608416",
        "meta_mean_motion": 1.00291151,
        "meta_eccentricity": 0.01101752,
        "meta_inclination": 48.0199,
        "meta_ra_of_asc_node": 273.857,
        "meta_arg_of_pericenter": 222.308,
        "meta_mean_anomaly": 314.7254,
        "meta_ephemeris_type": 0,
        "meta_classification_type": "U",
        "meta_norad_cat_id": 37948,
        "meta_element_set_no": 999,
        "meta_rev_at_epoch": 5126,
        "meta_bstar": 0,
        "meta_mean_motion_dot": -2.21e-06,
        "meta_mean_motion_ddot": 0,
        "tle_line1": "1 37948U 11073A   25346.76721769 -.00000221  00000+0  00000+0 0  9992",
        "tle_line2": "2 37948  48.0199 273.8570 0110175 222.3080 314.7254  1.00291151 51268"
      },
      "geometry": {
        "type": "Point",
        "coordinates": [
          46.250977092921474,
          39.39067445531315
        ]
      }
    },
    {
      "type": "Feature",
      "properties": {
        "norad_id": 38091,
        "name": "BEIDOU-2 G5 (C05)",
        "group": "beidou",
        "lat": -2.8865370605618663,
        "lon": 2.372263665541597,
        "alt_km": 35761.64323999042,
        "timestamp": "2025-12-14T14:39:29.635551+00:00",
        "meta_object_name": "BEIDOU-2 G5 (C05)",
        "meta_object_id": "2012-008A",
        "meta_epoch": "2025-12-14T00:00:07.426080",
        "meta_mean_motion": 1.00276224,
        "meta_eccentricity": 0.001255,
        "meta_inclination": 3.1127,
        "meta_ra_of_asc_node": 70.708,
        "meta_arg_of_pericenter": 228.1949,
        "meta_mean_anomaly": 202.8627,
        "meta_ephemeris_type": 0,
        "meta_classification_type": "U",
        "meta_norad_cat_id": 38091,
        "meta_element_set_no": 999,
        "meta_rev_at_epoch": 5051,
        "meta_bstar": 0,
        "meta_mean_motion_dot": 7.1e-07,
        "meta_mean_motion_ddot": 0,
        "tle_line1": "1 38091U 12008A   25348.00008595  .00000071  00000+0  00000+0 0  9997",
        "tle_line2": "2 38091   3.1127  70.7080 0012550 228.1949 202.8627  1.00276224 50519"
      },
      "geometry": {
        "type": "Point",
        "coordinates": [
          2.372263665541597,
          -2.8865370605618663
        ]
      }
    }
  ]
}